[
    {
        "Altitude(m)": 553605.3827241561,
        "Argument of Periapsis(deg)": 0.013245982221427002,
        "Eccentricity": 0.0,
        "Inclination(deg)": 53.0,
        "Latitude(deg)": 7.057720016822272,
        "Longitude(deg)": -161.90048503049528,
        "Mean Anomaly(deg)": 171.09228573515514,
        "RAAN(deg)": 124.98028673705605,
        "Satellite Name": "Starlink Shell 1 559",
        "Satellite Number": 559,
        "Semi-Major Axis(m)": 6931778.249405717,
        "Time(s)": 380
    },
    {
        "Altitude(m)": 553632.7675266942,
        "Argument of Periapsis(deg)": 0.013594560700938237,
        "Eccentricity": 0.0,
        "Inclination(deg)": 53.0,
        "Latitude(deg)": 6.555762569839712,
        "Longitude(deg)": -161.5597066524548,
        "Mean Anomaly(deg)": 171.71911693871195,
        "RAAN(deg)": 124.97976796697857,
        "Satellite Name": "Starlink Shell 1 559",
        "Satellite Number": 559,
        "Semi-Major Axis(m)": 6931778.249405717,
        "Time(s)": 390
    },
    {
        "Altitude(m)": 553662.9380329986,
        "Argument of Periapsis(deg)": 0.013943139180449475,
        "Eccentricity": 0.0,
        "Inclination(deg)": 53.0,
        "Latitude(deg)": 6.0535118816540505,
        "Longitude(deg)": -161.219696736607,
        "Mean Anomaly(deg)": 172.34594814226858,
        "RAAN(deg)": 124.9792491969011,
        "Satellite Name": "Starlink Shell 1 559",
        "Satellite Number": 559,
        "Semi-Major Axis(m)": 6931778.249405717,
        "Time(s)": 400
    },
    {
        "Altitude(m)": 553695.9030958189,
        "Argument of Periapsis(deg)": 0.014291717659960712,
        "Eccentricity": 0.0,
        "Inclination(deg)": 53.0,
        "Latitude(deg)": 5.550991820008229,
        "Longitude(deg)": -160.88039519672796,
        "Mean Anomaly(deg)": 172.97277934582536,
        "RAAN(deg)": 124.97873042682362,
        "Satellite Name": "Starlink Shell 1 559",
        "Satellite Number": 559,
        "Semi-Major Axis(m)": 6931778.249405717,
        "Time(s)": 410
    },
    {
        "Altitude(m)": 553731.670247037,
        "Argument of Periapsis(deg)": 0.014640296139471948,
        "Eccentricity": 0.0,
        "Inclination(deg)": 53.0,
        "Latitude(deg)": 5.048226105021712,
        "Longitude(deg)": -160.54174276236182,
        "Mean Anomaly(deg)": 173.59961054938196,
        "RAAN(deg)": 124.97821165674615,
        "Satellite Name": "Starlink Shell 1 559",
        "Satellite Number": 559,
        "Semi-Major Axis(m)": 6931778.249405717,
        "Time(s)": 420
    },
    {
        "Altitude(m)": 553770.2456911406,
        "Argument of Periapsis(deg)": 0.014988874618983185,
        "Eccentricity": 0.0,
        "Inclination(deg)": 53.0,
        "Latitude(deg)": 4.54523832164444,
        "Longitude(deg)": -160.2036804487699,
        "Mean Anomaly(deg)": 174.22644175293877,
        "RAAN(deg)": 124.97769288666866,
        "Satellite Name": "Starlink Shell 1 559",
        "Satellite Number": 559,
        "Semi-Major Axis(m)": 6931778.249405717,
        "Time(s)": 430
    },
    {
        "Altitude(m)": 553811.6342993482,
        "Argument of Periapsis(deg)": 0.015337453098494424,
        "Eccentricity": 0.0,
        "Inclination(deg)": 53.0,
        "Latitude(deg)": 4.042051931984083,
        "Longitude(deg)": -159.86614902695902,
        "Mean Anomaly(deg)": 174.8532729564955,
        "RAAN(deg)": 124.97717411659121,
        "Satellite Name": "Starlink Shell 1 559",
        "Satellite Number": 559,
        "Semi-Major Axis(m)": 6931778.249405717,
        "Time(s)": 440
    },
    {
        "Altitude(m)": 553855.8396044085,
        "Argument of Periapsis(deg)": 0.01568603157800566,
        "Eccentricity": 0.0,
        "Inclination(deg)": 53.0,
        "Latitude(deg)": 3.5386902875186337,
        "Longitude(deg)": -159.5290900066575,
        "Mean Anomaly(deg)": 175.48010416005215,
        "RAAN(deg)": 124.97665534651374,
        "Satellite Name": "Starlink Shell 1 559",
        "Satellite Number": 559,
        "Semi-Major Axis(m)": 6931778.249405717,
        "Time(s)": 450
    },
    {
        "Altitude(m)": 553902.8637960785,
        "Argument of Periapsis(deg)": 0.0160346100575169,
        "Eccentricity": 0.0,
        "Inclination(deg)": 53.0,
        "Latitude(deg)": 3.0351766412022263,
        "Longitude(deg)": -159.19244510648633,
        "Mean Anomaly(deg)": 176.1069353636089,
        "RAAN(deg)": 124.97613657643626,
        "Satellite Name": "Starlink Shell 1 559",
        "Satellite Number": 559,
        "Semi-Major Axis(m)": 6931778.249405717,
        "Time(s)": 460
    },
    {
        "Altitude(m)": 553952.7077172464,
        "Argument of Periapsis(deg)": 0.016383188537028134,
        "Eccentricity": 0.0,
        "Inclination(deg)": 53.0,
        "Latitude(deg)": 2.5315341594779803,
        "Longitude(deg)": -158.85615572419354,
        "Mean Anomaly(deg)": 176.7337665671656,
        "RAAN(deg)": 124.97561780635878,
        "Satellite Name": "Starlink Shell 1 559",
        "Satellite Number": 559,
        "Semi-Major Axis(m)": 6931778.249405717,
        "Time(s)": 470
    },
    {
        "Altitude(m)": 554005.3708607461,
        "Argument of Periapsis(deg)": 0.01673176701653937,
        "Eccentricity": 0.0,
        "Inclination(deg)": 53.0,
        "Latitude(deg)": 2.0277859342109257,
        "Longitude(deg)": -158.52016391981826,
        "Mean Anomaly(deg)": 177.36059777072236,
        "RAAN(deg)": 124.97509903628132,
        "Satellite Name": "Starlink Shell 1 559",
        "Satellite Number": 559,
        "Semi-Major Axis(m)": 6931778.249405717,
        "Time(s)": 480
    },
    {
        "Altitude(m)": 554060.8513668404,
        "Argument of Periapsis(deg)": 0.017080345496050607,
        "Eccentricity": 0.0,
        "Inclination(deg)": 53.0,
        "Latitude(deg)": 1.523954994549096,
        "Longitude(deg)": -158.18441188603137,
        "Mean Anomaly(deg)": 177.98742897427903,
        "RAAN(deg)": 124.97458026620383,
        "Satellite Name": "Starlink Shell 1 559",
        "Satellite Number": 559,
        "Semi-Major Axis(m)": 6931778.249405717,
        "Time(s)": 490
    },
    {
        "Altitude(m)": 554119.146021376,
        "Argument of Periapsis(deg)": 0.017428923975561842,
        "Eccentricity": 0.0,
        "Inclination(deg)": 53.0,
        "Latitude(deg)": 1.0200643187243699,
        "Longitude(deg)": -157.84884141851882,
        "Mean Anomaly(deg)": 178.61426017783577,
        "RAAN(deg)": 124.97406149612638,
        "Satellite Name": "Starlink Shell 1 559",
        "Satellite Number": 559,
        "Semi-Major Axis(m)": 6931778.249405717,
        "Time(s)": 500
    },
    {
        "Altitude(m)": 554180.2502546272,
        "Argument of Periapsis(deg)": 0.01777750245507308,
        "Eccentricity": 0.0,
        "Inclination(deg)": 53.0,
        "Latitude(deg)": 0.5161368458094381,
        "Longitude(deg)": -157.5133948992743,
        "Mean Anomaly(deg)": 179.24109138139247,
        "RAAN(deg)": 124.9735427260489,
        "Satellite Name": "Starlink Shell 1 559",
        "Satellite Number": 559,
        "Semi-Major Axis(m)": 6931778.249405717,
        "Time(s)": 510
    },
    {
        "Altitude(m)": 554244.158140806,
        "Argument of Periapsis(deg)": 0.018126080934584315,
        "Eccentricity": 0.0,
        "Inclination(deg)": 53.0,
        "Latitude(deg)": 0.01219548743509641,
        "Longitude(deg)": -157.17801476704656,
        "Mean Anomaly(deg)": 179.86792258494918,
        "RAAN(deg)": 124.9730239559714,
        "Satellite Name": "Starlink Shell 1 559",
        "Satellite Number": 559,
        "Semi-Major Axis(m)": 6931778.249405717,
        "Time(s)": 520
    },
    {
        "Altitude(m)": 554310.8623982506,
        "Argument of Periapsis(deg)": 0.018474659414095554,
        "Eccentricity": 0.0,
        "Inclination(deg)": 53.0,
        "Latitude(deg)": -0.49173686051754456,
        "Longitude(deg)": -156.84264298780764,
        "Mean Anomaly(deg)": 180.4947537885059,
        "RAAN(deg)": 124.97250518589395,
        "Satellite Name": "Starlink Shell 1 559",
        "Satellite Number": 559,
        "Semi-Major Axis(m)": 6931778.249405717,
        "Time(s)": 530
    },
    {
        "Altitude(m)": 554380.3543903009,
        "Argument of Periapsis(deg)": 0.018823237893606792,
        "Eccentricity": 0.0,
        "Inclination(deg)": 53.0,
        "Latitude(deg)": -0.9956373062356608,
        "Longitude(deg)": -156.5072220381075,
        "Mean Anomaly(deg)": 181.12158499206262,
        "RAAN(deg)": 124.97198641581649,
        "Satellite Name": "Starlink Shell 1 559",
        "Satellite Number": 559,
        "Semi-Major Axis(m)": 6931778.249405717,
        "Time(s)": 540
    },
    {
        "Altitude(m)": 554452.6241268616,
        "Argument of Periapsis(deg)": 0.019171816373118027,
        "Eccentricity": 0.0,
        "Inclination(deg)": 53.0,
        "Latitude(deg)": -1.499482950298902,
        "Longitude(deg)": -156.17169437556106,
        "Mean Anomaly(deg)": 181.7484161956193,
        "RAAN(deg)": 124.971467645739,
        "Satellite Name": "Starlink Shell 1 559",
        "Satellite Number": 559,
        "Semi-Major Axis(m)": 6931778.249405717,
        "Time(s)": 550
    },
    {
        "Altitude(m)": 554527.6602665969,
        "Argument of Periapsis(deg)": 0.019520394852629266,
        "Eccentricity": 0.0,
        "Inclination(deg)": 53.0,
        "Latitude(deg)": -2.0032508739947383,
        "Longitude(deg)": -155.83600190933248,
        "Mean Anomaly(deg)": 182.37524739917603,
        "RAAN(deg)": 124.97094887566152,
        "Satellite Name": "Starlink Shell 1 559",
        "Satellite Number": 559,
        "Semi-Major Axis(m)": 6931778.249405717,
        "Time(s)": 560
    }
]